[{"OBJECT_NAME":"STARLINK-5966","OBJECT_ID":"2023-083AV","EPOCH":"2026-03-09T22:00:01.999584","MEAN_MOTION":15.0938576,"ECCENTRICITY":0.00014041,"INCLINATION":43,"RA_OF_ASC_NODE":67.3895,"ARG_OF_PERICENTER":278.8918,"MEAN_ANOMALY":174.089,"EPHEMERIS_TYPE":0,"CLASSIFICATION_TYPE":"U","NORAD_CAT_ID":56919,"ELEMENT_SET_NO":999,"REV_AT_EPOCH":557,"BSTAR":0.0038722234,"MEAN_MOTION_DOT":0.00063281,"MEAN_MOTION_DDOT":0},{"OBJECT_NAME":"UNKNOWN","OBJECT_ID":"","EPOCH":"2026-03-07T17:21:07.805664","MEAN_MOTION":15.09455608,"ECCENTRICITY":0.0009057,"INCLINATION":82.8696,"RA_OF_ASC_NODE":177.6495,"ARG_OF_PERICENTER":167.3062,"MEAN_ANOMALY":192.8398,"EPHEMERIS_TYPE":0,"CLASSIFICATION_TYPE":"U","NORAD_CAT_ID":87725,"ELEMENT_SET_NO":999,"REV_AT_EPOCH":64668,"BSTAR":0.0060116,"MEAN_MOTION_DOT":0.00097492,"MEAN_MOTION_DDOT":0}]
